COSMOS 2251 DEB         
1 34979U 93036AFJ 26191.32112461  .00003655  00000+0  44829-3 0  9990
2 34979  74.0372 213.6730 0047703 242.3885 117.2445 14.82707776913233
COSMOS 2251 DEB         
1 34990U 93036AFN 26188.79453666  .00000647  00000+0  20154-3 0  9998
2 34990  74.0437 227.3184 0016620 247.7874 112.1520 14.42870299903328
COSMOS 2251 DEB         
1 34997U 93036AFV 26185.00397799  .00005134  00000+0  13322-2 0  9994
2 34997  73.8798 287.8307 0090796 222.4751 136.9358 14.47540617736869
COSMOS 2251 DEB         
1 34998U 93036AFW 26190.28677677  .00001144  00000+0  30112-3 0  9991
2 34998  74.0100 127.9175 0021691 225.5703 287.0618 14.50093807904420
COSMOS 2251 DEB         
1 35012U 93036AFZ 26189.74446620  .00000230  00000+0  70226-4 0  9996
2 35012  74.0203  83.4489 0080370 173.4097 186.8139 14.45744334905676
COSMOS 2251 DEB         
1 35014U 93036AGB 26190.71441212  .00006397  00000+0  85718-3 0  9990
2 35014  73.9973 352.4947 0009850  92.5399 267.6905 14.79576749744230
COSMOS 2251 DEB         
1 35015U 93036AGC 26185.82272583  .00003347  00000+0  87703-3 0  9998
2 35015  73.9457 210.9201 0073472  31.3098 146.5990 14.48063536683936
COSMOS 2251 DEB         
1 35016U 93036AGD 26190.60072027  .00000562  00000+0  19094-3 0  9996
2 35016  73.9294 268.8575 0111560 140.4003 289.0646 14.35505060897792
COSMOS 2251 DEB         
1 35018U 93036AGF 26190.24453052  .00001135  00000+0  90733-3 0  9995
2 35018  73.9778 126.4252 0344318 353.3423   6.3174 13.67721930860361
COSMOS 2251 DEB         
1 35020U 93036AGH 26191.27044940  .00000155  00000+0  34651-4 0  9993
2 35020  74.0459 157.4233 0090732 218.8171 140.6458 14.63100791913020
COSMOS 2251 DEB         
1 35022U 93036AGK 26186.64294987  .00002138  00000+0  42918-3 0  9995
2 35022  74.0252 289.8568 0046309  75.0005 285.6280 14.61659067621363
COSMOS 2251 DEB         
1 35023U 93036AGL 26191.27098473  .00011414  00000+0  83817-3 0  9993
2 35023  74.0337 147.0321 0029521 179.7930 249.5348 15.03165614914205
COSMOS 2251 DEB         
1 35025U 93036AGN 26189.94249221  .00001285  00000+0  19125-3 0  9991
2 35025  73.9364  14.6094 0082976 240.0778 119.2136 14.73830616917091
COSMOS 2251 DEB         
1 35026U 93036AGP 26189.62872951  .00000092  00000+0  27961-4 0  9992
2 35026  74.0475 286.3131 0083879 346.4966  78.2741 14.53743231911645
COSMOS 2251 DEB         
1 35028U 93036AGR 26188.84934207  .00000157  00000+0  40354-4 0  9993
2 35028  74.0367 237.8892 0084168 319.2613 156.2963 14.56736517913019
COSMOS 2251 DEB         
1 35031U 93036AGU 26189.80193578  .00000205  00000+0  75480-4 0  9994
2 35031  74.0368 235.8623 0020200 282.3069  77.5824 14.38500541682757
COSMOS 2251 DEB         
1 35032U 93036AGV 26191.08122779  .00002676  00000+0  54383-3 0  9995
2 35032  73.8513 323.5207 0065209 129.5875 347.0096 14.60308498907281
COSMOS 2251 DEB         
1 35033U 93036AGW 26189.59903018  .00001596  00000+0  40181-3 0  9993
2 35033  74.0257 145.0715 0014802 207.6121 152.4256 14.51955505689433
COSMOS 2251 DEB         
1 35038U 93036AHB 26191.32346079  .00001560  00000+0  61526-3 0  9997
2 35038  74.1080  25.5731 0110288 318.2731 220.4015 14.26666615885568
COSMOS 2251 DEB         
1 35043U 93036AHG 26188.46090505  .00024639  00000+0  25443-2 0  9993
2 35043  73.9484 354.5054 0080629 148.1693 212.4398 14.87655060704827
COSMOS 2251 DEB         
1 35045U 93036AHJ 26187.29244094  .00000648  00000+0  39292-3 0  9991
2 35045  73.7184  49.5496 0180191 260.7245  97.3471 14.00798492875210
COSMOS 2251 DEB         
1 35060U 93036AHP 26190.45843405  .00000481  00000+0  15446-3 0  9991
2 35060  74.0353 217.5523 0019487 258.1898 101.7073 14.42020835902507
COSMOS 2251 DEB         
1 35061U 93036AHQ 26189.45738088  .00001355  00000+0  23173-3 0  9997
2 35061  74.0439 264.0295 0041560 322.4430  37.3839 14.69367490916240
COSMOS 2251 DEB         
1 35062U 93036AHR 26187.39865080  .00003288  00000+0  13082-2 0  9996
2 35062  74.0769  83.8747 0126844  34.2196 326.7042 14.24712281884262
COSMOS 2251 DEB         
1 35065U 93036AHU 26189.64220723  .00000893  00000+0  25596-3 0  9991
2 35065  74.0186 166.0123 0020915 244.9738 114.9249 14.46329521713569
COSMOS 2251 DEB         
1 35071U 93036AJA 26185.52870461  .00021799  00000+0  13451-2 0  9995
2 35071  73.9303 112.7403 0063218 317.5364  42.0944 15.08164312706041
COSMOS 2251 DEB         
1 35073U 93036AJC 26186.92321836  .00071445  00000+0  31372-2 0  9994
2 35073  73.9841 265.1524 0016160 337.6575  22.3917 15.21466316705783
COSMOS 2251 DEB         
1 35284U 93036AJN 26190.82907671  .00000199  00000+0  73522-4 0  9992
2 35284  74.0476 239.3703 0017791 269.5666 213.0202 14.38520549685329
COSMOS 2251 DEB         
1 35287U 93036AJR 26190.15839514  .00000142  00000+0  57099-4 0  9990
2 35287  74.0294 253.1023 0019147 302.0455  89.0162 14.36530802898856
COSMOS 2251 DEB         
1 35288U 93036AJS 26190.65829079  .00003588  00000+0  62642-3 0  9997
2 35288  73.9497 330.0237 0035971 150.3010 210.0212 14.67914623909414
COSMOS 2251 DEB         
1 35290U 93036AJU 26190.76030062  .00009635  00000+0  10816-2 0  9992
2 35290  74.0030   4.3454 0007281  79.9107 280.2894 14.86854616910581
COSMOS 2251 DEB         
1 35433U 93036AKB 26189.73973560  .00000426  00000+0  15806-3 0  9999
2 35433  74.0276 317.2255 0026382 322.0885 107.2570 14.35050077895646
COSMOS 2251 DEB         
1 35434U 93036AKC 26189.70326089  .00000748  00000+0  30980-3 0  9992
2 35434  74.0385 198.0423 0087067 220.3365 139.1304 14.26302736890826
COSMOS 2251 DEB         
1 35435U 93036AKD 26191.31407701  .00009915  00000+0  11697-2 0  9992
2 35435  74.0087  49.3846 0011799 101.4037  16.5707 14.84775300906432
COSMOS 2251 DEB         
1 35439U 93036AKH 26191.25289487  .00001150  00000+0  70309-3 0  9997
2 35439  74.0183 135.4215 0240556 257.6148  99.7966 13.93743763868795
COSMOS 2251 DEB         
1 35440U 93036AKJ 26189.65634933  .00001468  00000+0  24197-3 0  9996
2 35440  74.0139 164.3228 0070021 254.3745 104.9691 14.69886113718191
COSMOS 2251 DEB         
1 35441U 93036AKK 26188.54655924  .00003465  00000+0  63579-3 0  9993
2 35441  74.1325 263.1007 0032279  91.6704 268.8163 14.65784714904576
COSMOS 2251 DEB         
1 35442U 93036AKL 26191.01744787  .00013085  00000+0  12420-2 0  9993
2 35442  74.0234  40.5828 0004152  89.7118 270.4541 14.93558803904689
COSMOS 2251 DEB         
1 35443U 93036AKM 26189.54790510  .00082219  00000+0  28311-2 0  9995
2 35443  73.9668 260.5158 0049112 341.8530  18.0915 15.28485183900163
COSMOS 2251 DEB         
1 35445U 93036AKP 26190.17325574  .00003233  00000+0  56074-3 0  9999
2 35445  74.0353 261.4051 0140100 297.3434  61.3529 14.62419869903730
COSMOS 2251 DEB         
1 35446U 93036AKQ 26190.25466566  .00000168  00000+0  44575-4 0  9994
2 35446  74.0472 283.8588 0076026 348.4356  11.5056 14.54824791910401
COSMOS 2251 DEB         
1 35448U 93036AKS 26189.33201427  .00001697  00000+0  39399-3 0  9991
2 35448  73.9026  53.2650 0010957 175.9677 184.1577 14.55769892903548
COSMOS 2251 DEB         
1 35453U 93036AKX 26186.16824683  .00002757  00000+0  88067-3 0  9994
2 35453  74.0052   2.9273 0068461  87.0661 273.8325 14.38800230891586
COSMOS 2251 DEB         
1 35455U 93036AKZ 26190.18117000  .00001521  00000+0  36783-3 0  9997
2 35455  74.0273 262.9191 0100876 316.3019  43.0186 14.50939045895657
COSMOS 2251 DEB         
1 35456U 93036ALA 26184.97262071  .00008304  00000+0  12435-2 0  9990
2 35456  73.9479  80.2491 0061292 240.2069 119.3000 14.73514834688658
COSMOS 2251 DEB         
1 35459U 93036ALD 26190.61523851  .00000437  00000+0  15409-3 0  9991
2 35459  73.8705 158.9430 0015378  59.7272 300.5401 14.37789203613630
COSMOS 2251 DEB         
1 35462U 93036ALG 26188.55364679  .00001621  00000+0  60567-3 0  9997
2 35462  74.0339 252.5576 0084257 239.8357 119.4427 14.30707092693372
COSMOS 2251 DEB         
1 35465U 93036ALK 26189.65130719  .00000871  00000+0  25191-3 0  9998
2 35465  73.9975 169.0602 0065343 280.5710  78.8091 14.44875931902441
COSMOS 2251 DEB         
1 35469U 93036ALP 26190.78989384  .00000239  00000+0  66674-4 0  9998
2 35469  74.0173 350.8636 0075877  94.2111 266.7725 14.49990720911410
COSMOS 2251 DEB         
1 35475U 93036ALV 26188.20051807  .00005988  00000+0  91131-3 0  9990
2 35475  74.0207 123.5866 0019609 152.9376 207.2824 14.74052299686553
COSMOS 2251 DEB         
1 35476U 93036ALW 26190.67096300  .00007076  00000+0  91602-3 0  9995
2 35476  73.9764   8.7721 0012843 314.0440 173.7088 14.80979096909759
COSMOS 2251 DEB         
1 35580U 93036ALX 26190.31550600  .00001066  00000+0  71272-3 0  9994
2 35580  73.8997 183.7341 0279757 149.8171 211.9412 13.84789022651434
COSMOS 2251 DEB         
1 35583U 93036AMA 26190.81745012  .00000436  00000+0  40809-3 0  9997
2 35583  73.9154 233.0350 0385161 218.8321 138.4535 13.55817729852451
COSMOS 2251 DEB         
1 35585U 93036AMC 26189.91047551  .00000864  00000+0  65148-3 0  9999
2 35585  73.9716   0.6604 0304956 230.1055 203.4056 13.75941235669269
COSMOS 2251 DEB         
1 35586U 93036AMD 26189.69061358  .00000558  00000+0  52469-3 0  9998
2 35586  74.0225 329.2793 0403230 160.7460 213.9318 13.52300384631938
COSMOS 2251 DEB         
1 35587U 93036AME 26190.76076934  .00001034  00000+0  15726-3 0  9990
2 35587  74.0032  11.1125 0099987 146.6769 214.0753 14.72085651694211
COSMOS 2251 DEB         
1 35593U 93036AML 26189.50763075  .00001467  00000+0  58659-3 0  9998
2 35593  74.0847 274.1809 0101814 230.1050 129.1115 14.26499530880272
COSMOS 2251 DEB         
1 35594U 93036AMM 26191.01250133  .00008168  00000+0  77338-3 0  9994
2 35594  73.8061  41.2487 0028944 112.1519 248.2739 14.93450554913048
COSMOS 2251 DEB         
1 35602U 93036AMV 26189.80177694  .00018338  00000+0  36292-3 0  9992
2 35602  73.9917  91.3159 0070499 102.7027 318.8117 15.44291960932947
COSMOS 2251 DEB         
1 35606U 93036AMZ 26191.26471388  .00000579  00000+0  58897-3 0  9999
2 35606  73.8095  36.7794 0453023 208.8767 148.6573 13.41464808638498
